CCSDS_OMM_VERS = 2.0
CREATION_DATE  = 
ORIGINATOR     = 

OBJECT_NAME    = ATLAS CENTAUR R/B
OBJECT_ID      = 1972-065B
CENTER_NAME    = EARTH
REF_FRAME      = TEME
TIME_SYSTEM    = UTC
MEAN_ELEMENT_THEORY = SGP/SGP4

EPOCH          = 2026-03-14T15:01:13.956672
MEAN_MOTION    = 14.77703439
ECCENTRICITY   = .00330466
INCLINATION    = 35.0009
RA_OF_ASC_NODE = 276.8259
ARG_OF_PERICENTER = 50.7465
MEAN_ANOMALY   = 309.6161

EPHEMERIS_TYPE = 0
CLASSIFICATION_TYPE = U
NORAD_CAT_ID   = 6155
ELEMENT_SET_NO = 999
REV_AT_EPOCH   = 84199
BSTAR          = .21922066E-3
MEAN_MOTION_DOT = .1586E-4
MEAN_MOTION_DDOT = 0

CCSDS_OMM_VERS = 2.0
CREATION_DATE  = 
ORIGINATOR     = 

OBJECT_NAME    = SL-8 R/B
OBJECT_ID      = 1975-112B
CENTER_NAME    = EARTH
REF_FRAME      = TEME
TIME_SYSTEM    = UTC
MEAN_ELEMENT_THEORY = SGP/SGP4

EPOCH          = 2026-03-14T05:35:40.790400
MEAN_MOTION    = 14.38206645
ECCENTRICITY   = .00144284
INCLINATION    = 74.0634
RA_OF_ASC_NODE = 10.5548
ARG_OF_PERICENTER = 101.8268
MEAN_ANOMALY   = 258.4505

EPHEMERIS_TYPE = 0
CLASSIFICATION_TYPE = U
NORAD_CAT_ID   = 8459
ELEMENT_SET_NO = 999
REV_AT_EPOCH   = 63252
BSTAR          = .97592009E-4
MEAN_MOTION_DOT = .271E-5
MEAN_MOTION_DDOT = 0

CCSDS_OMM_VERS = 2.0
CREATION_DATE  = 
ORIGINATOR     = 

OBJECT_NAME    = SL-3 R/B
OBJECT_ID      = 1977-057B
CENTER_NAME    = EARTH
REF_FRAME      = TEME
TIME_SYSTEM    = UTC
MEAN_ELEMENT_THEORY = SGP/SGP4

EPOCH          = 2026-03-14T13:47:36.260736
MEAN_MOTION    = 15.45648139
ECCENTRICITY   = .00061502
INCLINATION    = 97.5777
RA_OF_ASC_NODE = 245.7112
ARG_OF_PERICENTER = 264.0185
MEAN_ANOMALY   = 96.0362

EPHEMERIS_TYPE = 0
CLASSIFICATION_TYPE = U
NORAD_CAT_ID   = 10114
ELEMENT_SET_NO = 999
REV_AT_EPOCH   = 66908
BSTAR          = .37104908E-3
MEAN_MOTION_DOT = .17818E-3
MEAN_MOTION_DDOT = 0

CCSDS_OMM_VERS = 2.0
CREATION_DATE  = 
ORIGINATOR     = 

OBJECT_NAME    = SEASAT 1
OBJECT_ID      = 1978-064A
CENTER_NAME    = EARTH
REF_FRAME      = TEME
TIME_SYSTEM    = UTC
MEAN_ELEMENT_THEORY = SGP/SGP4

EPOCH          = 2026-03-14T09:46:33.854592
MEAN_MOTION    = 14.46164411
ECCENTRICITY   = .00023941
INCLINATION    = 108.0100
RA_OF_ASC_NODE = 135.3991
ARG_OF_PERICENTER = 283.9369
MEAN_ANOMALY   = 76.1511

EPHEMERIS_TYPE = 0
CLASSIFICATION_TYPE = U
NORAD_CAT_ID   = 10967
ELEMENT_SET_NO = 999
REV_AT_EPOCH   = 50719
BSTAR          = .11329414E-3
MEAN_MOTION_DOT = .268E-5
MEAN_MOTION_DDOT = 0

CCSDS_OMM_VERS = 2.0
CREATION_DATE  = 
ORIGINATOR     = 

OBJECT_NAME    = SL-14 R/B
OBJECT_ID      = 1979-011B
CENTER_NAME    = EARTH
REF_FRAME      = TEME
TIME_SYSTEM    = UTC
MEAN_ELEMENT_THEORY = SGP/SGP4

EPOCH          = 2026-03-14T13:02:51.150912
MEAN_MOTION    = 14.91914936
ECCENTRICITY   = .001713
INCLINATION    = 82.5204
RA_OF_ASC_NODE = 91.9636
ARG_OF_PERICENTER = 45.4850
MEAN_ANOMALY   = 314.7766

EPHEMERIS_TYPE = 0
CLASSIFICATION_TYPE = U
NORAD_CAT_ID   = 11267
ELEMENT_SET_NO = 999
REV_AT_EPOCH   = 52950
BSTAR          = .68212006E-4
MEAN_MOTION_DOT = .717E-5
MEAN_MOTION_DDOT = 0

CCSDS_OMM_VERS = 2.0
CREATION_DATE  = 
ORIGINATOR     = 

OBJECT_NAME    = SL-8 R/B
OBJECT_ID      = 1979-089B
CENTER_NAME    = EARTH
REF_FRAME      = TEME
TIME_SYSTEM    = UTC
MEAN_ELEMENT_THEORY = SGP/SGP4

EPOCH          = 2026-03-14T11:05:11.673888
MEAN_MOTION    = 14.42354150
ECCENTRICITY   = .00171102
INCLINATION    = 74.0667
RA_OF_ASC_NODE = 82.2084
ARG_OF_PERICENTER = 254.4139
MEAN_ANOMALY   = 105.5129

EPHEMERIS_TYPE = 0
CLASSIFICATION_TYPE = U
NORAD_CAT_ID   = 11574
ELEMENT_SET_NO = 999
REV_AT_EPOCH   = 43679
BSTAR          = .10698347E-3
MEAN_MOTION_DOT = .328E-5
MEAN_MOTION_DDOT = 0

CCSDS_OMM_VERS = 2.0
CREATION_DATE  = 
ORIGINATOR     = 

OBJECT_NAME    = SL-14 R/B
OBJECT_ID      = 1980-005B
CENTER_NAME    = EARTH
REF_FRAME      = TEME
TIME_SYSTEM    = UTC
MEAN_ELEMENT_THEORY = SGP/SGP4

EPOCH          = 2026-03-14T15:02:51.042624
MEAN_MOTION    = 14.90936740
ECCENTRICITY   = .00165858
INCLINATION    = 82.5135
RA_OF_ASC_NODE = 302.5527
ARG_OF_PERICENTER = 142.5165
MEAN_ANOMALY   = 217.7214

EPHEMERIS_TYPE = 0
CLASSIFICATION_TYPE = U
NORAD_CAT_ID   = 11672
ELEMENT_SET_NO = 999
REV_AT_EPOCH   = 47722
BSTAR          = .61630247E-4
MEAN_MOTION_DOT = .635E-5
MEAN_MOTION_DDOT = 0

CCSDS_OMM_VERS = 2.0
CREATION_DATE  = 
ORIGINATOR     = 

OBJECT_NAME    = SL-8 R/B
OBJECT_ID      = 1981-003B
CENTER_NAME    = EARTH
REF_FRAME      = TEME
TIME_SYSTEM    = UTC
MEAN_ELEMENT_THEORY = SGP/SGP4

EPOCH          = 2026-03-14T13:40:56.232192
MEAN_MOTION    = 15.11187823
ECCENTRICITY   = .02616933
INCLINATION    = 82.9385
RA_OF_ASC_NODE = 285.5114
ARG_OF_PERICENTER = 161.6314
MEAN_ANOMALY   = 199.4595

EPHEMERIS_TYPE = 0
CLASSIFICATION_TYPE = U
NORAD_CAT_ID   = 12139
ELEMENT_SET_NO = 999
REV_AT_EPOCH   = 31541
BSTAR          = .69104138E-3
MEAN_MOTION_DOT = .27083E-3
MEAN_MOTION_DDOT = 0

CCSDS_OMM_VERS = 2.0
CREATION_DATE  = 
ORIGINATOR     = 

OBJECT_NAME    = SL-3 R/B
OBJECT_ID      = 1981-046B
CENTER_NAME    = EARTH
REF_FRAME      = TEME
TIME_SYSTEM    = UTC
MEAN_ELEMENT_THEORY = SGP/SGP4

EPOCH          = 2026-03-14T14:04:10.082784
MEAN_MOTION    = 15.42132044
ECCENTRICITY   = .00191618
INCLINATION    = 81.2295
RA_OF_ASC_NODE = 283.8637
ARG_OF_PERICENTER = 5.3670
MEAN_ANOMALY   = 354.7774

EPHEMERIS_TYPE = 0
CLASSIFICATION_TYPE = U
NORAD_CAT_ID   = 12465
ELEMENT_SET_NO = 999
REV_AT_EPOCH   = 43918
BSTAR          = .38074551E-3
MEAN_MOTION_DOT = .16448E-3
MEAN_MOTION_DDOT = 0

CCSDS_OMM_VERS = 2.0
CREATION_DATE  = 
ORIGINATOR     = 

OBJECT_NAME    = SL-3 R/B
OBJECT_ID      = 1981-103B
CENTER_NAME    = EARTH
REF_FRAME      = TEME
TIME_SYSTEM    = UTC
MEAN_ELEMENT_THEORY = SGP/SGP4

EPOCH          = 2026-03-14T13:45:44.161056
MEAN_MOTION    = 15.21445078
ECCENTRICITY   = .00123735
INCLINATION    = 81.1591
RA_OF_ASC_NODE = 207.7031
ARG_OF_PERICENTER = 268.9534
MEAN_ANOMALY   = 91.0280

EPHEMERIS_TYPE = 0
CLASSIFICATION_TYPE = U
NORAD_CAT_ID   = 12904
ELEMENT_SET_NO = 999
REV_AT_EPOCH   = 97397
BSTAR          = .36408757E-3
MEAN_MOTION_DOT = .822E-4
MEAN_MOTION_DDOT = 0

CCSDS_OMM_VERS = 2.0
CREATION_DATE  = 
ORIGINATOR     = 

OBJECT_NAME    = SL-3 R/B
OBJECT_ID      = 1982-013B
CENTER_NAME    = EARTH
REF_FRAME      = TEME
TIME_SYSTEM    = UTC
MEAN_ELEMENT_THEORY = SGP/SGP4

EPOCH          = 2026-03-14T13:54:26.957088
MEAN_MOTION    = 15.22069483
ECCENTRICITY   = .002292
INCLINATION    = 81.1759
RA_OF_ASC_NODE = 155.0402
ARG_OF_PERICENTER = 160.9121
MEAN_ANOMALY   = 199.2976

EPHEMERIS_TYPE = 0
CLASSIFICATION_TYPE = U
NORAD_CAT_ID   = 13068
ELEMENT_SET_NO = 999
REV_AT_EPOCH   = 40509
BSTAR          = .25912979E-3
MEAN_MOTION_DOT = .5996E-4
MEAN_MOTION_DDOT = 0

CCSDS_OMM_VERS = 2.0
CREATION_DATE  = 
ORIGINATOR     = 

OBJECT_NAME    = SL-3 R/B
OBJECT_ID      = 1982-039B
CENTER_NAME    = EARTH
REF_FRAME      = TEME
TIME_SYSTEM    = UTC
MEAN_ELEMENT_THEORY = SGP/SGP4

EPOCH          = 2026-03-14T13:26:35.585376
MEAN_MOTION    = 15.10113952
ECCENTRICITY   = .00294999
INCLINATION    = 81.1576
RA_OF_ASC_NODE = 210.3467
ARG_OF_PERICENTER = 308.5487
MEAN_ANOMALY   = 51.3094

EPHEMERIS_TYPE = 0
CLASSIFICATION_TYPE = U
NORAD_CAT_ID   = 13154
ELEMENT_SET_NO = 999
REV_AT_EPOCH   = 38237
BSTAR          = .21783155E-3
MEAN_MOTION_DOT = .3608E-4
MEAN_MOTION_DDOT = 0

